IRIDIUM 106             
1 41917U 17003A   26013.83729944  .00000229  00000+0  74788-4 0  9991
2 41917  86.4011 153.0552 0002237  85.8606 274.2846 14.34216249471081
IRIDIUM 103             
1 41918U 17003B   26014.10368351  .00000001  00000+0 -67097-5 0  9999
2 41918  86.4016 152.8445 0002249 102.7501 257.3947 14.34217705471140
IRIDIUM 109             
1 41919U 17003C   26014.11002601  .00000007  00000+0 -46132-5 0  9997
2 41919  86.4014 152.8986 0002076  96.7729 263.3704 14.34217618471119
IRIDIUM 102             
1 41920U 17003D   26013.79923696  .00000080  00000+0  21541-4 0  9994
2 41920  86.4009 152.9552 0001985  96.9577 263.1845 14.34216713471159
IRIDIUM 105             
1 41921U 17003E   26014.18856939  .00000185  00000+0  58976-4 0  9992
2 41921  86.3992 121.2805 0002130  96.9335 263.2103 14.34214722473063
IRIDIUM 104             
1 41922U 17003F   26013.81192380  .00000032  00000+0  42777-5 0  9999
2 41922  86.4012 152.9900 0001980 105.5906 254.5509 14.34217891471148
IRIDIUM 114             
1 41923U 17003G   26013.81826649 -.00000001  00000+0 -73909-5 0  9991
2 41923  86.4015 152.9714 0001978 101.6939 258.4479 14.34217591471129
IRIDIUM 108             
1 41924U 17003H   26014.19539852  .00000012  00000+0 -26027-5 0  9991
2 41924  86.3991 121.1659 0001970  94.8529 265.2892 14.34217839473030
